[{"OBJECT_NAME":"STARLINK-3323","OBJECT_ID":"2022-001B","EPOCH":"2026-03-09T18:07:26.813280","MEAN_MOTION":15.08842876,"ECCENTRICITY":0.00013146,"INCLINATION":53.2149,"RA_OF_ASC_NODE":158.8293,"ARG_OF_PERICENTER":101.3232,"MEAN_ANOMALY":258.7908,"EPHEMERIS_TYPE":0,"CLASSIFICATION_TYPE":"U","NORAD_CAT_ID":50804,"ELEMENT_SET_NO":999,"REV_AT_EPOCH":23055,"BSTAR":0.00059139469,"MEAN_MOTION_DOT":9.137e-5,"MEAN_MOTION_DDOT":0},{"OBJECT_NAME":"CZ-6A DEB","OBJECT_ID":"2024-126C","EPOCH":"2026-03-09T22:45:09.534528","MEAN_MOTION":15.08339588,"ECCENTRICITY":0.00034995,"INCLINATION":97.8272,"RA_OF_ASC_NODE":88.0703,"ARG_OF_PERICENTER":249.9832,"MEAN_ANOMALY":110.1019,"EPHEMERIS_TYPE":0,"CLASSIFICATION_TYPE":"U","NORAD_CAT_ID":60213,"ELEMENT_SET_NO":999,"REV_AT_EPOCH":9177,"BSTAR":0.0010886629,"MEAN_MOTION_DOT":0.00016868,"MEAN_MOTION_DDOT":0}]
